start=new Date('2022-03-13T00:00:00.000Z').valueOf();
sats=[{"EPHEMERIS_TYPE":"0","MEAN_ELEMENT_THEORY":"SGP4","GP_ID":"198604044","MEAN_MOTION":"15.06398619","MEAN_ANOMALY":"288.1800","CLASSIFICATION_TYPE":"U","TLE_LINE2":"2 46542  53.0542 241.2944 0001340  71.9335 288.1800 15.06398619 79768","PERIAPSIS":"546.290","LAUNCH_DATE":"2020-10-06","RCS_SIZE":"LARGE","RA_OF_ASC_NODE":"241.2944","DECAY_DATE":null,"TIME_SYSTEM":"UTC","TLE_LINE1":"1 46542U 20070L   22071.80998361 -.00000460  00000-0 -12008-4 0  9993","INCLINATION":"53.0542","COUNTRY_CODE":"US","OBJECT_TYPE":"PAYLOAD","APOAPSIS":"548.146","MEAN_MOTION_DDOT":"0.0000000000000","REV_AT_EPOCH":"7976","SITE":"AFETR","BSTAR":"-0.00001200800000","ECCENTRICITY":"0.00013400","CENTER_NAME":"EARTH","EPOCH":"2022-03-12T19:26:22.583904","NORAD_CAT_ID":"46542","ELEMENT_SET_NO":"999","REF_FRAME":"TEME","PERIOD":"95.592","OBJECT_ID":"2020-070L","ARG_OF_PERICENTER":"71.9335","MEAN_MOTION_DOT":"-0.00000460","OBJECT_NAME":"STARLINK-1692","SEMIMAJOR_AXIS":"6925.353","FILE":"3356931"},{"APOAPSIS":"548.291","MEAN_MOTION_DDOT":"0.0000000000000","REV_AT_EPOCH":"7975","SITE":"AFETR","BSTAR":"0.00004535500000","CENTER_NAME":"EARTH","ECCENTRICITY":"0.00015920","EPOCH":"2022-03-12T17:29:34.998720","NORAD_CAT_ID":"46543","ELEMENT_SET_NO":"999","REF_FRAME":"TEME","PERIOD":"95.592","ARG_OF_PERICENTER":"62.6394","OBJECT_ID":"2020-070M","MEAN_MOTION_DOT":"0.00000394","OBJECT_NAME":"STARLINK-1693","SEMIMAJOR_AXIS":"6925.324","FILE":"3356931","EPHEMERIS_TYPE":"0","GP_ID":"198604796","MEAN_ELEMENT_THEORY":"SGP4","MEAN_MOTION":"15.06408031","MEAN_ANOMALY":"297.4757","CLASSIFICATION_TYPE":"U","TLE_LINE2":"2 46543  53.0529 241.6495 0001592  62.6394 297.4757 15.06408031 79753","PERIAPSIS":"546.086","LAUNCH_DATE":"2020-10-06","RCS_SIZE":"LARGE","RA_OF_ASC_NODE":"241.6495","DECAY_DATE":null,"TIME_SYSTEM":"UTC","TLE_LINE1":"1 46543U 20070M   22071.72887730  .00000394  00000-0  45355-4 0  9997","INCLINATION":"53.0529","COUNTRY_CODE":"US","OBJECT_TYPE":"PAYLOAD"},{"APOAPSIS":"548.249","MEAN_MOTION_DDOT":"0.0000000000000","SITE":"AFETR","REV_AT_EPOCH":"7998","BSTAR":"-0.00010968000000","CENTER_NAME":"EARTH","ECCENTRICITY":"0.00015500","NORAD_CAT_ID":"46544","EPOCH":"2022-03-12T20:34:41.761056","ELEMENT_SET_NO":"999","REF_FRAME":"TEME","PERIOD":"95.591","OBJECT_ID":"2020-070N","ARG_OF_PERICENTER":"67.5620","MEAN_MOTION_DOT":"-0.00001915","OBJECT_NAME":"STARLINK-1694","SEMIMAJOR_AXIS":"6925.310","FILE":"3356931","EPHEMERIS_TYPE":"0","GP_ID":"198605547","MEAN_ELEMENT_THEORY":"SGP4","MEAN_ANOMALY":"292.5533","MEAN_MOTION":"15.06412431","TLE_LINE2":"2 46544  53.0541 226.0861 0001550  67.5620 292.5533 15.06412431 79984","CLASSIFICATION_TYPE":"U","PERIAPSIS":"546.102","LAUNCH_DATE":"2020-10-06","RA_OF_ASC_NODE":"226.0861","RCS_SIZE":"LARGE","DECAY_DATE":null,"TIME_SYSTEM":"UTC","TLE_LINE1":"1 46544U 20070N   22071.85742779 -.00001915  00000-0 -10968-3 0  9998","OBJECT_TYPE":"PAYLOAD","COUNTRY_CODE":"US","INCLINATION":"53.0541"},{"MEAN_ANOMALY":"278.7436","MEAN_MOTION":"15.06398902","EPHEMERIS_TYPE":"0","MEAN_ELEMENT_THEORY":"SGP4","GP_ID":"198604295","DECAY_DATE":null,"TIME_SYSTEM":"UTC","TLE_LINE1":"1 46545U 20070P   22071.76574465  .00000412  00000-0  46516-4 0  9992","OBJECT_TYPE":"PAYLOAD","COUNTRY_CODE":"US","INCLINATION":"53.0555","TLE_LINE2":"2 46545  53.0555 241.5077 0001260  81.3696 278.7436 15.06398902 79755","CLASSIFICATION_TYPE":"U","PERIAPSIS":"546.344","LAUNCH_DATE":"2020-10-06","RA_OF_ASC_NODE":"241.5077","RCS_SIZE":"LARGE","ECCENTRICITY":"0.00012600","CENTER_NAME":"EARTH","NORAD_CAT_ID":"46545","EPOCH":"2022-03-12T18:22:40.337760","APOAPSIS":"548.090","MEAN_MOTION_DDOT":"0.0000000000000","SITE":"AFETR","REV_AT_EPOCH":"7975","BSTAR":"0.00004651600000","MEAN_MOTION_DOT":"0.00000412","OBJECT_NAME":"STARLINK-1696","FILE":"3356931","SEMIMAJOR_AXIS":"6925.352","REF_FRAME":"TEME","ELEMENT_SET_NO":"999","PERIOD":"95.592","OBJECT_ID":"2020-070P","ARG_OF_PERICENTER":"81.3696"},{"OBJECT_ID":"2020-070Q","ARG_OF_PERICENTER":"66.1060","REF_FRAME":"TEME","ELEMENT_SET_NO":"999","PERIOD":"95.593","OBJECT_NAME":"STARLINK-1697","SEMIMAJOR_AXIS":"6925.394","FILE":"3356931","MEAN_MOTION_DOT":"-0.00001243","REV_AT_EPOCH":"7976","SITE":"AFETR","BSTAR":"-0.00006461300000","APOAPSIS":"548.296","MEAN_MOTION_DDOT":"0.0000000000000","EPOCH":"2022-03-12T19:36:59.459904","NORAD_CAT_ID":"46546","ECCENTRICITY":"0.00014980","CENTER_NAME":"EARTH","LAUNCH_DATE":"2020-10-06","RCS_SIZE":"LARGE","RA_OF_ASC_NODE":"241.2550","CLASSIFICATION_TYPE":"U","TLE_LINE2":"2 46546  53.0545 241.2550 0001498  66.1060 294.0086 15.06385174 79767","PERIAPSIS":"546.222","TLE_LINE1":"1 46546U 20070Q   22071.81735486 -.00001243  00000-0 -64613-4 0  9994","INCLINATION":"53.0545","COUNTRY_CODE":"US","OBJECT_TYPE":"PAYLOAD","DECAY_DATE":null,"TIME_SYSTEM":"UTC","EPHEMERIS_TYPE":"0","GP_ID":"198604545","MEAN_ELEMENT_THEORY":"SGP4","MEAN_MOTION":"15.06385174","MEAN_ANOMALY":"294.0086"},{"GP_ID":"198605297","MEAN_ELEMENT_THEORY":"SGP4","EPHEMERIS_TYPE":"0","MEAN_ANOMALY":"288.7175","MEAN_MOTION":"15.06394707","RA_OF_ASC_NODE":"241.1262","RCS_SIZE":"LARGE","LAUNCH_DATE":"2020-10-06","PERIAPSIS":"546.248","TLE_LINE2":"2 46547  53.0530 241.1262 0001418  71.3968 288.7175 15.06394707 79770","CLASSIFICATION_TYPE":"U","OBJECT_TYPE":"PAYLOAD","COUNTRY_CODE":"US","INCLINATION":"53.0530","TLE_LINE1":"1 46547U 20070R   22071.84684593  .00000007  00000-0  19395-4 0  9992","TIME_SYSTEM":"UTC","DECAY_DATE":null,"BSTAR":"0.00001939500000","SITE":"AFETR","REV_AT_EPOCH":"7977","MEAN_MOTION_DDOT":"0.0000000000000","APOAPSIS":"548.212","NORAD_CAT_ID":"46547","EPOCH":"2022-03-12T20:19:27.488352","ECCENTRICITY":"0.00014180","CENTER_NAME":"EARTH","OBJECT_ID":"2020-070R","ARG_OF_PERICENTER":"71.3968","PERIOD":"95.592","ELEMENT_SET_NO":"999","REF_FRAME":"TEME","SEMIMAJOR_AXIS":"6925.365","FILE":"3356931","OBJECT_NAME":"STARLINK-1698","MEAN_MOTION_DOT":"0.00000007"},{"PERIOD":"95.591","ELEMENT_SET_NO":"999","REF_FRAME":"TEME","ARG_OF_PERICENTER":"78.2075","OBJECT_ID":"2020-070S","MEAN_MOTION_DOT":"0.00000651","FILE":"3356931","SEMIMAJOR_AXIS":"6925.317","OBJECT_NAME":"STARLINK-1699","MEAN_MOTION_DDOT":"0.0000000000000","APOAPSIS":"548.166","BSTAR":"0.00006259100000","SITE":"AFETR","REV_AT_EPOCH":"7977","CENTER_NAME":"EARTH","ECCENTRICITY":"0.00014210","NORAD_CAT_ID":"46548","EPOCH":"2022-03-12T20:35:21.178464","PERIAPSIS":"546.197","TLE_LINE2":"2 46548  53.0525 241.0836 0001421  78.2075 281.9074 15.06410457 79774","CLASSIFICATION_TYPE":"U","RA_OF_ASC_NODE":"241.0836","RCS_SIZE":"LARGE","LAUNCH_DATE":"2020-10-06","TIME_SYSTEM":"UTC","DECAY_DATE":null,"OBJECT_TYPE":"PAYLOAD","INCLINATION":"53.0525","COUNTRY_CODE":"US","TLE_LINE1":"1 46548U 20070S   22071.85788401  .00000651  00000-0  62591-4 0  9998","MEAN_ELEMENT_THEORY":"SGP4","GP_ID":"198605047","EPHEMERIS_TYPE":"0","MEAN_ANOMALY":"281.9074","MEAN_MOTION":"15.06410457"},{"MEAN_MOTION_DDOT":"0.0000000000000","APOAPSIS":"548.212","BSTAR":"-0.00009858800000","SITE":"AFETR","REV_AT_EPOCH":"7976","ECCENTRICITY":"0.00014260","CENTER_NAME":"EARTH","NORAD_CAT_ID":"46549","EPOCH":"2022-03-12T19:42:17.412768","PERIOD":"95.592","REF_FRAME":"TEME","ELEMENT_SET_NO":"999","ARG_OF_PERICENTER":"76.9073","OBJECT_ID":"2020-070T","MEAN_MOTION_DOT":"-0.00001749","SEMIMAJOR_AXIS":"6925.360","FILE":"3356931","OBJECT_NAME":"STARLINK-1700","MEAN_ELEMENT_THEORY":"SGP4","GP_ID":"198603795","EPHEMERIS_TYPE":"0","MEAN_ANOMALY":"283.2075","MEAN_MOTION":"15.06396344","PERIAPSIS":"546.237","TLE_LINE2":"2 46549  53.0521 241.2367 0001426  76.9073 283.2075 15.06396344 79763","CLASSIFICATION_TYPE":"U","RA_OF_ASC_NODE":"241.2367","RCS_SIZE":"LARGE","LAUNCH_DATE":"2020-10-06","TIME_SYSTEM":"UTC","DECAY_DATE":null,"OBJECT_TYPE":"PAYLOAD","INCLINATION":"53.0521","COUNTRY_CODE":"US","TLE_LINE1":"1 46549U 20070T   22071.82103487 -.00001749  00000-0 -98588-4 0  9997"},{"EPHEMERIS_TYPE":"0","GP_ID":"198604045","MEAN_ELEMENT_THEORY":"SGP4","MEAN_ANOMALY":"294.4353","MEAN_MOTION":"15.06404034","LAUNCH_DATE":"2020-10-06","RA_OF_ASC_NODE":"241.0139","RCS_SIZE":"LARGE","TLE_LINE2":"2 46550  53.0545 241.0139 0001425  65.6785 294.4353 15.06404034 79770","CLASSIFICATION_TYPE":"U","PERIAPSIS":"546.214","TLE_LINE1":"1 46550U 20070U   22071.87263047  .00001444  00000-0  11583-3 0  9992","OBJECT_TYPE":"PAYLOAD","COUNTRY_CODE":"US","INCLINATION":"53.0545","DECAY_DATE":null,"TIME_SYSTEM":"UTC","SITE":"AFETR","REV_AT_EPOCH":"7977","BSTAR":"0.00011583000000","APOAPSIS":"548.188","MEAN_MOTION_DDOT":"0.0000000000000","NORAD_CAT_ID":"46550","EPOCH":"2022-03-12T20:56:35.272608","CENTER_NAME":"EARTH","ECCENTRICITY":"0.00014250","ARG_OF_PERICENTER":"65.6785","OBJECT_ID":"2020-070U","ELEMENT_SET_NO":"999","REF_FRAME":"TEME","PERIOD":"95.592","OBJECT_NAME":"STARLINK-1701","SEMIMAJOR_AXIS":"6925.336","FILE":"3356931","MEAN_MOTION_DOT":"0.00001444"},{"ELEMENT_SET_NO":"999","REF_FRAME":"TEME","PERIOD":"95.591","OBJECT_ID":"2020-070W","ARG_OF_PERICENTER":"67.5420","MEAN_MOTION_DOT":"0.00011868","OBJECT_NAME":"STARLINK-1649","FILE":"3356931","SEMIMAJOR_AXIS":"6925.309","APOAPSIS":"548.038","MEAN_MOTION_DDOT":"0.0000000000000","SITE":"AFETR","REV_AT_EPOCH":"7998","BSTAR":"0.00081403000000","ECCENTRICITY":"0.00012470","CENTER_NAME":"EARTH","NORAD_CAT_ID":"46552","EPOCH":"2022-03-12T19:57:33.137856","TLE_LINE2":"2 46552  53.0522 226.1881 0001247  67.5420 292.5701 15.06412833 79989","CLASSIFICATION_TYPE":"U","PERIAPSIS":"546.311","LAUNCH_DATE":"2020-10-06","RA_OF_ASC_NODE":"226.1881","RCS_SIZE":"LARGE","DECAY_DATE":null,"TIME_SYSTEM":"UTC","TLE_LINE1":"1 46552U 20070W   22071.83163354  .00011868  00000-0  81403-3 0  9999","OBJECT_TYPE":"PAYLOAD","INCLINATION":"53.0522","COUNTRY_CODE":"US","EPHEMERIS_TYPE":"0","GP_ID":"198604797","MEAN_ELEMENT_THEORY":"SGP4","MEAN_ANOMALY":"292.5701","MEAN_MOTION":"15.06412833"}];
